ONEWEB-0205             
1 48226U 21031S   25105.81250246  .00000254  00000+0  65033-3 0  9990
2 48226  87.9091  14.6933 0001761  85.0134 275.1197 13.14505336192128
ONEWEB-0206             
1 48227U 21031T   25105.78554703 -.00000295  00000+0 -83005-3 0  9998
2 48227  87.9087  14.6808 0001810  81.3428 278.7907 13.14502200192074
ONEWEB-0182             
1 48228U 21031U   25105.78077788 -.00002535  00000+0 -68720-2 0  9997
2 48228  87.9110  14.7198 0001995  82.9450 277.1906 13.14511351192283
ONEWEB-0186             
1 48229U 21031V   25105.79189258  .00000088  00000+0  20308-3 0  9995
2 48229  87.9092  14.6811 0001736  82.0584 278.0742 13.14504355192235
ONEWEB-0181             
1 48230U 21031W   25105.76969134 -.00000173  00000+0 -50051-3 0  9998
2 48230  87.9095  14.7568 0001686  79.4399 280.6921 13.14504186192081
ONEWEB-0188             
1 48231U 21031X   25105.73163301  .00000248  00000+0  63542-3 0  9998
2 48231  87.9093  14.7568 0001820  81.3302 278.8034 13.14505014191989
ONEWEB-0220             
1 48232U 21031Y   25105.77127069 -.00000448  00000+0 -12430-2 0  9997
2 48232  87.9085  14.6953 0001741  89.4206 270.7123 13.14504338192251
ONEWEB-0165             
1 48233U 21031Z   25105.79981722  .00000132  00000+0  32056-3 0  9999
2 48233  87.9092  14.7267 0001697  82.9403 277.1920 13.14505081192214
